CCSDS_OMM_VERS = 2.0
CREATION_DATE  = 
ORIGINATOR     = 

OBJECT_NAME    = STARLINK-37019
OBJECT_ID      = 2026-055M
CENTER_NAME    = EARTH
REF_FRAME      = TEME
TIME_SYSTEM    = UTC
MEAN_ELEMENT_THEORY = SGP/SGP4

EPOCH          = 2026-03-28T20:00:01.999872
MEAN_MOTION    = 15.96350335
ECCENTRICITY   = .00009058
INCLINATION    = 53.1578
RA_OF_ASC_NODE = 241.6040
ARG_OF_PERICENTER = 58.2632
MEAN_ANOMALY   = 23.3856

EPHEMERIS_TYPE = 0
CLASSIFICATION_TYPE = U
NORAD_CAT_ID   = 68273
ELEMENT_SET_NO = 999
REV_AT_EPOCH   = 271
BSTAR          = -.26688901E-2
MEAN_MOTION_DOT = -.1142791E-1
MEAN_MOTION_DDOT = .4071179E-3

CCSDS_OMM_VERS = 2.0
CREATION_DATE  = 
ORIGINATOR     = 

OBJECT_NAME    = STARLINK-37129
OBJECT_ID      = 2026-055N
CENTER_NAME    = EARTH
REF_FRAME      = TEME
TIME_SYSTEM    = UTC
MEAN_ELEMENT_THEORY = SGP/SGP4

EPOCH          = 2026-03-28T20:00:01.999872
MEAN_MOTION    = 15.96461310
ECCENTRICITY   = .00008427
INCLINATION    = 53.1576
RA_OF_ASC_NODE = 241.5973
ARG_OF_PERICENTER = 58.5506
MEAN_ANOMALY   = 26.4633

EPHEMERIS_TYPE = 0
CLASSIFICATION_TYPE = U
NORAD_CAT_ID   = 68274
ELEMENT_SET_NO = 999
REV_AT_EPOCH   = 271
BSTAR          = -.26607487E-2
MEAN_MOTION_DOT = -.1146196E-1
MEAN_MOTION_DDOT = .40978991E-3

CCSDS_OMM_VERS = 2.0
CREATION_DATE  = 
ORIGINATOR     = 

OBJECT_NAME    = STARLINK-37123
OBJECT_ID      = 2026-055P
CENTER_NAME    = EARTH
REF_FRAME      = TEME
TIME_SYSTEM    = UTC
MEAN_ELEMENT_THEORY = SGP/SGP4

EPOCH          = 2026-03-28T20:00:01.999872
MEAN_MOTION    = 15.96571980
ECCENTRICITY   = .00009591
INCLINATION    = 53.1579
RA_OF_ASC_NODE = 241.5915
ARG_OF_PERICENTER = 54.1803
MEAN_ANOMALY   = 33.6321

EPHEMERIS_TYPE = 0
CLASSIFICATION_TYPE = U
NORAD_CAT_ID   = 68275
ELEMENT_SET_NO = 999
REV_AT_EPOCH   = 271
BSTAR          = -.26622586E-2
MEAN_MOTION_DOT = -.1153746E-1
MEAN_MOTION_DDOT = .41517649E-3

CCSDS_OMM_VERS = 2.0
CREATION_DATE  = 
ORIGINATOR     = 

OBJECT_NAME    = STARLINK-37125
OBJECT_ID      = 2026-055Q
CENTER_NAME    = EARTH
REF_FRAME      = TEME
TIME_SYSTEM    = UTC
MEAN_ELEMENT_THEORY = SGP/SGP4

EPOCH          = 2026-03-28T20:00:01.999872
MEAN_MOTION    = 15.96689083
ECCENTRICITY   = .00009161
INCLINATION    = 53.1577
RA_OF_ASC_NODE = 241.5833
ARG_OF_PERICENTER = 53.7319
MEAN_ANOMALY   = 38.0904

EPHEMERIS_TYPE = 0
CLASSIFICATION_TYPE = U
NORAD_CAT_ID   = 68276
ELEMENT_SET_NO = 999
REV_AT_EPOCH   = 271
BSTAR          = -.26471416E-2
MEAN_MOTION_DOT = -.1154572E-1
MEAN_MOTION_DDOT = .41621814E-3

CCSDS_OMM_VERS = 2.0
CREATION_DATE  = 
ORIGINATOR     = 

OBJECT_NAME    = STARLINK-36989
OBJECT_ID      = 2026-055R
CENTER_NAME    = EARTH
REF_FRAME      = TEME
TIME_SYSTEM    = UTC
MEAN_ELEMENT_THEORY = SGP/SGP4

EPOCH          = 2026-03-28T20:00:01.999872
MEAN_MOTION    = 15.97045793
ECCENTRICITY   = .00008675
INCLINATION    = 53.1575
RA_OF_ASC_NODE = 241.5621
ARG_OF_PERICENTER = 61.3471
MEAN_ANOMALY   = 40.7537

EPHEMERIS_TYPE = 0
CLASSIFICATION_TYPE = U
NORAD_CAT_ID   = 68277
ELEMENT_SET_NO = 999
REV_AT_EPOCH   = 271
BSTAR          = -.26382589E-2
MEAN_MOTION_DOT = -.1173276E-1
MEAN_MOTION_DDOT = .43012877E-3

CCSDS_OMM_VERS = 2.0
CREATION_DATE  = 
ORIGINATOR     = 

OBJECT_NAME    = STARLINK-36982
OBJECT_ID      = 2026-055S
CENTER_NAME    = EARTH
REF_FRAME      = TEME
TIME_SYSTEM    = UTC
MEAN_ELEMENT_THEORY = SGP/SGP4

EPOCH          = 2026-03-28T20:00:01.999872
MEAN_MOTION    = 15.96931166
ECCENTRICITY   = .00009
INCLINATION    = 53.1575
RA_OF_ASC_NODE = 241.5693
ARG_OF_PERICENTER = 57.9459
MEAN_ANOMALY   = 40.9659

EPHEMERIS_TYPE = 0
CLASSIFICATION_TYPE = U
NORAD_CAT_ID   = 68278
ELEMENT_SET_NO = 999
REV_AT_EPOCH   = 271
BSTAR          = -.26538473E-2
MEAN_MOTION_DOT = -.117279E-1
MEAN_MOTION_DDOT = .42929514E-3

CCSDS_OMM_VERS = 2.0
CREATION_DATE  = 
ORIGINATOR     = 

OBJECT_NAME    = STARLINK-36934
OBJECT_ID      = 2026-055T
CENTER_NAME    = EARTH
REF_FRAME      = TEME
TIME_SYSTEM    = UTC
MEAN_ELEMENT_THEORY = SGP/SGP4

EPOCH          = 2026-03-28T20:00:01.999872
MEAN_MOTION    = 15.96807909
ECCENTRICITY   = .00010065
INCLINATION    = 53.1576
RA_OF_ASC_NODE = 241.5757
ARG_OF_PERICENTER = 50.6062
MEAN_ANOMALY   = 45.0871

EPHEMERIS_TYPE = 0
CLASSIFICATION_TYPE = U
NORAD_CAT_ID   = 68279
ELEMENT_SET_NO = 999
REV_AT_EPOCH   = 271
BSTAR          = -.26317418E-2
MEAN_MOTION_DOT = -.1155374E-1
MEAN_MOTION_DDOT = .41725691E-3

CCSDS_OMM_VERS = 2.0
CREATION_DATE  = 
ORIGINATOR     = 

OBJECT_NAME    = STARLINK-37070
OBJECT_ID      = 2026-055U
CENTER_NAME    = EARTH
REF_FRAME      = TEME
TIME_SYSTEM    = UTC
MEAN_ELEMENT_THEORY = SGP/SGP4

EPOCH          = 2026-03-28T20:00:01.999872
MEAN_MOTION    = 15.97168688
ECCENTRICITY   = .00009003
INCLINATION    = 53.1578
RA_OF_ASC_NODE = 241.5540
ARG_OF_PERICENTER = 61.0511
MEAN_ANOMALY   = 44.9331

EPHEMERIS_TYPE = 0
CLASSIFICATION_TYPE = U
NORAD_CAT_ID   = 68280
ELEMENT_SET_NO = 999
REV_AT_EPOCH   = 271
BSTAR          = -.25998528E-2
MEAN_MOTION_DOT = -.1164169E-1
MEAN_MOTION_DDOT = .42462337E-3

CCSDS_OMM_VERS = 2.0
CREATION_DATE  = 
ORIGINATOR     = 

OBJECT_NAME    = STARLINK-37134
OBJECT_ID      = 2026-055V
CENTER_NAME    = EARTH
REF_FRAME      = TEME
TIME_SYSTEM    = UTC
MEAN_ELEMENT_THEORY = SGP/SGP4

EPOCH          = 2026-03-28T20:00:01.999872
MEAN_MOTION    = 15.97417140
ECCENTRICITY   = .0000898
INCLINATION    = 53.1573
RA_OF_ASC_NODE = 241.5396
ARG_OF_PERICENTER = 57.0049
MEAN_ANOMALY   = 55.9564

EPHEMERIS_TYPE = 0
CLASSIFICATION_TYPE = U
NORAD_CAT_ID   = 68281
ELEMENT_SET_NO = 999
REV_AT_EPOCH   = 271
BSTAR          = -.25777129E-2
MEAN_MOTION_DOT = -.1170153E-1
MEAN_MOTION_DDOT = .42970344E-3

CCSDS_OMM_VERS = 2.0
CREATION_DATE  = 
ORIGINATOR     = 

OBJECT_NAME    = STARLINK-37160
OBJECT_ID      = 2026-055W
CENTER_NAME    = EARTH
REF_FRAME      = TEME
TIME_SYSTEM    = UTC
MEAN_ELEMENT_THEORY = SGP/SGP4

EPOCH          = 2026-03-28T20:00:01.999872
MEAN_MOTION    = 15.97296156
ECCENTRICITY   = .00009408
INCLINATION    = 53.1576
RA_OF_ASC_NODE = 241.5471
ARG_OF_PERICENTER = 56.9128
MEAN_ANOMALY   = 52.7214

EPHEMERIS_TYPE = 0
CLASSIFICATION_TYPE = U
NORAD_CAT_ID   = 68282
ELEMENT_SET_NO = 999
REV_AT_EPOCH   = 271
BSTAR          = -.25987847E-2
MEAN_MOTION_DOT = -.1171832E-1
MEAN_MOTION_DDOT = .43028279E-3

CCSDS_OMM_VERS = 2.0
CREATION_DATE  = 
ORIGINATOR     = 

OBJECT_NAME    = STARLINK-37124
OBJECT_ID      = 2026-055X
CENTER_NAME    = EARTH
REF_FRAME      = TEME
TIME_SYSTEM    = UTC
MEAN_ELEMENT_THEORY = SGP/SGP4

EPOCH          = 2026-03-28T20:00:01.999872
MEAN_MOTION    = 15.97527867
ECCENTRICITY   = .00009201
INCLINATION    = 53.1575
RA_OF_ASC_NODE = 241.5339
ARG_OF_PERICENTER = 63.5365
MEAN_ANOMALY   = 52.3373

EPHEMERIS_TYPE = 0
CLASSIFICATION_TYPE = U
NORAD_CAT_ID   = 68283
ELEMENT_SET_NO = 999
REV_AT_EPOCH   = 271
BSTAR          = -.25440159E-2
MEAN_MOTION_DOT = -.116206E-1
MEAN_MOTION_DDOT = .42480978E-3

CCSDS_OMM_VERS = 2.0
CREATION_DATE  = 
ORIGINATOR     = 

OBJECT_NAME    = STARLINK-37159
OBJECT_ID      = 2026-055Y
CENTER_NAME    = EARTH
REF_FRAME      = TEME
TIME_SYSTEM    = UTC
MEAN_ELEMENT_THEORY = SGP/SGP4

EPOCH          = 2026-03-28T20:00:01.999872
MEAN_MOTION    = 15.97662876
ECCENTRICITY   = .00009424
INCLINATION    = 53.1574
RA_OF_ASC_NODE = 241.5265
ARG_OF_PERICENTER = 70.2100
MEAN_ANOMALY   = 49.2173

EPHEMERIS_TYPE = 0
CLASSIFICATION_TYPE = U
NORAD_CAT_ID   = 68284
ELEMENT_SET_NO = 999
REV_AT_EPOCH   = 271
BSTAR          = -.25475057E-2
MEAN_MOTION_DOT = -.117229E-1
MEAN_MOTION_DDOT = .43223576E-3

CCSDS_OMM_VERS = 2.0
CREATION_DATE  = 
ORIGINATOR     = 

OBJECT_NAME    = STARLINK-36725
OBJECT_ID      = 2026-055Z
CENTER_NAME    = EARTH
REF_FRAME      = TEME
TIME_SYSTEM    = UTC
MEAN_ELEMENT_THEORY = SGP/SGP4

EPOCH          = 2026-03-28T20:00:01.999872
MEAN_MOTION    = 15.97773512
ECCENTRICITY   = .00009236
INCLINATION    = 53.1571
RA_OF_ASC_NODE = 241.5200
ARG_OF_PERICENTER = 59.1922
MEAN_ANOMALY   = 63.0984

EPHEMERIS_TYPE = 0
CLASSIFICATION_TYPE = U
NORAD_CAT_ID   = 68285
ELEMENT_SET_NO = 999
REV_AT_EPOCH   = 271
BSTAR          = -.25077558E-2
MEAN_MOTION_DOT = -.1161242E-1
MEAN_MOTION_DDOT = .42535611E-3

CCSDS_OMM_VERS = 2.0
CREATION_DATE  = 
ORIGINATOR     = 

OBJECT_NAME    = STARLINK-36998
OBJECT_ID      = 2026-055AA
CENTER_NAME    = EARTH
REF_FRAME      = TEME
TIME_SYSTEM    = UTC
MEAN_ELEMENT_THEORY = SGP/SGP4

EPOCH          = 2026-03-28T20:00:01.999872
MEAN_MOTION    = 15.98045408
ECCENTRICITY   = .00009161
INCLINATION    = 53.1578
RA_OF_ASC_NODE = 241.5068
ARG_OF_PERICENTER = 59.5534
MEAN_ANOMALY   = 69.8543

EPHEMERIS_TYPE = 0
CLASSIFICATION_TYPE = U
NORAD_CAT_ID   = 68286
ELEMENT_SET_NO = 999
REV_AT_EPOCH   = 271
BSTAR          = -.24828707E-2
MEAN_MOTION_DOT = -.1167198E-1
MEAN_MOTION_DDOT = .43055124E-3

CCSDS_OMM_VERS = 2.0
CREATION_DATE  = 
ORIGINATOR     = 

OBJECT_NAME    = STARLINK-37165
OBJECT_ID      = 2026-055AB
CENTER_NAME    = EARTH
REF_FRAME      = TEME
TIME_SYSTEM    = UTC
MEAN_ELEMENT_THEORY = SGP/SGP4

EPOCH          = 2026-03-28T20:00:01.999872
MEAN_MOTION    = 15.98184086
ECCENTRICITY   = .00009099
INCLINATION    = 53.1575
RA_OF_ASC_NODE = 241.4983
ARG_OF_PERICENTER = 54.9827
MEAN_ANOMALY   = 77.7348

EPHEMERIS_TYPE = 0
CLASSIFICATION_TYPE = U
NORAD_CAT_ID   = 68287
ELEMENT_SET_NO = 999
REV_AT_EPOCH   = 271
BSTAR          = -.24970042E-2
MEAN_MOTION_DOT = -.1182786E-1
MEAN_MOTION_DDOT = .44169807E-3

